[{"OBJECT_NAME":"STARLINK-34126","OBJECT_ID":"2025-107V","EPOCH":"2026-03-09T09:37:39.870624","MEAN_MOTION":15.27616604,"ECCENTRICITY":0.00015505,"INCLINATION":42.9998,"RA_OF_ASC_NODE":203.4065,"ARG_OF_PERICENTER":276.3985,"MEAN_ANOMALY":83.669,"EPHEMERIS_TYPE":0,"CLASSIFICATION_TYPE":"U","NORAD_CAT_ID":64083,"ELEMENT_SET_NO":999,"REV_AT_EPOCH":4498,"BSTAR":0.00092823773,"MEAN_MOTION_DOT":0.00025398,"MEAN_MOTION_DDOT":0},{"OBJECT_NAME":"239ALFEROV (RS61S)","OBJECT_ID":"2025-155F","EPOCH":"2026-03-09T21:46:33.382848","MEAN_MOTION":15.29933217,"ECCENTRICITY":0.00084878,"INCLINATION":97.4469,"RA_OF_ASC_NODE":37.6373,"ARG_OF_PERICENTER":151.5904,"MEAN_ANOMALY":208.58,"EPHEMERIS_TYPE":0,"CLASSIFICATION_TYPE":"U","NORAD_CAT_ID":64881,"ELEMENT_SET_NO":999,"REV_AT_EPOCH":6561,"BSTAR":0.00067233359,"MEAN_MOTION_DOT":0.00019457,"MEAN_MOTION_DDOT":0}]
